STARLINK-36786          
1 67872U 26034Y   26060.83335647 -.01514517  00000+0 -77915-2 0  9994
2 67872  53.1500 250.5421 0000961  59.5818  55.1827 15.83230164  2606
STARLINK-36783          
1 67873U 26034Z   26060.83335647 -.01504374  00000+0 -76671-2 0  9993
2 67873  53.1497 250.5336 0001097  55.4309  63.1159 15.83405572  2602
STARLINK-36730          
1 67874U 26034AA  26060.83335647 -.01511305  00000+0 -76384-2 0  9997
2 67874  53.1496 250.5265 0000916  63.4267  58.8540 15.83594782  2601
STARLINK-36727          
1 67875U 26034AB  26060.83335647 -.01502010  00000+0 -75224-2 0  9993
2 67875  53.1495 250.5185 0001072  57.5033  68.4963 15.83765878  2603
STARLINK-36743          
1 67876U 26034AC  26060.83335647 -.01505019  00000+0 -74812-2 0  9998
2 67876  53.1494 250.5105 0001096  60.4016  69.3429 15.83927039  2601
STARLINK-36784          
1 67877U 26034AD  26060.83335647 -.01511510  00000+0 -74534-2 0  9993
2 67877  53.1496 250.5031 0001091  68.3540  65.0521 15.84105558  2607
STARLINK-36689          
1 67878U 26034AE  26060.83335647 -.01497948  00000+0 -73165-2 0  9991
2 67878  53.1494 250.4959 0001004  64.8087  72.1876 15.84278792  2608
STARLINK-36818          
1 67879U 26035A   26060.83335647 -.00850237  25193-3 -13921-2 0  9994
2 67879  97.2805 352.5257 0001005 102.7618 334.1083 16.03266720  2490
STARLINK-36821          
1 67880U 26035B   26060.83335647 -.00852523  25375-3 -13806-2 0  9990
2 67880  97.2802 352.5278 0000914  98.4858 343.0328 16.03453412  2494
STARLINK-36808          
1 67881U 26035C   26060.83335647 -.00833901  24320-3 -13603-2 0  9994
2 67881  97.2802 352.5265 0001031  87.4936 351.1035 16.03328231  2492
STARLINK-36817          
1 67882U 26035D   26060.83335647 -.00851816  25406-3 -13609-2 0  9992
2 67882  97.2795 352.5301 0000961  95.8977 351.3066 16.03682345  2499
STARLINK-36856          
1 67883U 26035E   26060.83335647 -.00837231  24570-3 -13467-2 0  9991
2 67883  97.2800 352.5290 0001074  79.4956   5.0743 16.03565693  2496
