CCSDS_OMM_VERS = 2.0
CREATION_DATE  = 
ORIGINATOR     = 

OBJECT_NAME    = STARLINK-36786
OBJECT_ID      = 2026-034Y
CENTER_NAME    = EARTH
REF_FRAME      = TEME
TIME_SYSTEM    = UTC
MEAN_ELEMENT_THEORY = SGP/SGP4

EPOCH          = 2026-03-01T20:00:01.999008
MEAN_MOTION    = 15.83230164
ECCENTRICITY   = .0000961
INCLINATION    = 53.1500
RA_OF_ASC_NODE = 250.5421
ARG_OF_PERICENTER = 59.5818
MEAN_ANOMALY   = 55.1827

EPHEMERIS_TYPE = 0
CLASSIFICATION_TYPE = U
NORAD_CAT_ID   = 67872
ELEMENT_SET_NO = 999
REV_AT_EPOCH   = 260
BSTAR          = -.77915E-2
MEAN_MOTION_DOT = -.1514517E-1
MEAN_MOTION_DDOT = 0

CCSDS_OMM_VERS = 2.0
CREATION_DATE  = 
ORIGINATOR     = 

OBJECT_NAME    = STARLINK-36783
OBJECT_ID      = 2026-034Z
CENTER_NAME    = EARTH
REF_FRAME      = TEME
TIME_SYSTEM    = UTC
MEAN_ELEMENT_THEORY = SGP/SGP4

EPOCH          = 2026-03-01T20:00:01.999008
MEAN_MOTION    = 15.83405572
ECCENTRICITY   = .0001097
INCLINATION    = 53.1497
RA_OF_ASC_NODE = 250.5336
ARG_OF_PERICENTER = 55.4309
MEAN_ANOMALY   = 63.1159

EPHEMERIS_TYPE = 0
CLASSIFICATION_TYPE = U
NORAD_CAT_ID   = 67873
ELEMENT_SET_NO = 999
REV_AT_EPOCH   = 260
BSTAR          = -.76671E-2
MEAN_MOTION_DOT = -.1504374E-1
MEAN_MOTION_DDOT = 0

CCSDS_OMM_VERS = 2.0
CREATION_DATE  = 
ORIGINATOR     = 

OBJECT_NAME    = STARLINK-36730
OBJECT_ID      = 2026-034AA
CENTER_NAME    = EARTH
REF_FRAME      = TEME
TIME_SYSTEM    = UTC
MEAN_ELEMENT_THEORY = SGP/SGP4

EPOCH          = 2026-03-01T20:00:01.999008
MEAN_MOTION    = 15.83594782
ECCENTRICITY   = .0000916
INCLINATION    = 53.1496
RA_OF_ASC_NODE = 250.5265
ARG_OF_PERICENTER = 63.4267
MEAN_ANOMALY   = 58.8540

EPHEMERIS_TYPE = 0
CLASSIFICATION_TYPE = U
NORAD_CAT_ID   = 67874
ELEMENT_SET_NO = 999
REV_AT_EPOCH   = 260
BSTAR          = -.76384E-2
MEAN_MOTION_DOT = -.1511305E-1
MEAN_MOTION_DDOT = 0

CCSDS_OMM_VERS = 2.0
CREATION_DATE  = 
ORIGINATOR     = 

OBJECT_NAME    = STARLINK-36727
OBJECT_ID      = 2026-034AB
CENTER_NAME    = EARTH
REF_FRAME      = TEME
TIME_SYSTEM    = UTC
MEAN_ELEMENT_THEORY = SGP/SGP4

EPOCH          = 2026-03-01T20:00:01.999008
MEAN_MOTION    = 15.83765878
ECCENTRICITY   = .0001072
INCLINATION    = 53.1495
RA_OF_ASC_NODE = 250.5185
ARG_OF_PERICENTER = 57.5033
MEAN_ANOMALY   = 68.4963

EPHEMERIS_TYPE = 0
CLASSIFICATION_TYPE = U
NORAD_CAT_ID   = 67875
ELEMENT_SET_NO = 999
REV_AT_EPOCH   = 260
BSTAR          = -.75224E-2
MEAN_MOTION_DOT = -.150201E-1
MEAN_MOTION_DDOT = 0

CCSDS_OMM_VERS = 2.0
CREATION_DATE  = 
ORIGINATOR     = 

OBJECT_NAME    = STARLINK-36743
OBJECT_ID      = 2026-034AC
CENTER_NAME    = EARTH
REF_FRAME      = TEME
TIME_SYSTEM    = UTC
MEAN_ELEMENT_THEORY = SGP/SGP4

EPOCH          = 2026-03-01T20:00:01.999008
MEAN_MOTION    = 15.83927039
ECCENTRICITY   = .0001096
INCLINATION    = 53.1494
RA_OF_ASC_NODE = 250.5105
ARG_OF_PERICENTER = 60.4016
MEAN_ANOMALY   = 69.3429

EPHEMERIS_TYPE = 0
CLASSIFICATION_TYPE = U
NORAD_CAT_ID   = 67876
ELEMENT_SET_NO = 999
REV_AT_EPOCH   = 260
BSTAR          = -.74812E-2
MEAN_MOTION_DOT = -.1505019E-1
MEAN_MOTION_DDOT = 0

CCSDS_OMM_VERS = 2.0
CREATION_DATE  = 
ORIGINATOR     = 

OBJECT_NAME    = STARLINK-36784
OBJECT_ID      = 2026-034AD
CENTER_NAME    = EARTH
REF_FRAME      = TEME
TIME_SYSTEM    = UTC
MEAN_ELEMENT_THEORY = SGP/SGP4

EPOCH          = 2026-03-01T20:00:01.999008
MEAN_MOTION    = 15.84105558
ECCENTRICITY   = .0001091
INCLINATION    = 53.1496
RA_OF_ASC_NODE = 250.5031
ARG_OF_PERICENTER = 68.3540
MEAN_ANOMALY   = 65.0521

EPHEMERIS_TYPE = 0
CLASSIFICATION_TYPE = U
NORAD_CAT_ID   = 67877
ELEMENT_SET_NO = 999
REV_AT_EPOCH   = 260
BSTAR          = -.74534E-2
MEAN_MOTION_DOT = -.151151E-1
MEAN_MOTION_DDOT = 0

CCSDS_OMM_VERS = 2.0
CREATION_DATE  = 
ORIGINATOR     = 

OBJECT_NAME    = STARLINK-36689
OBJECT_ID      = 2026-034AE
CENTER_NAME    = EARTH
REF_FRAME      = TEME
TIME_SYSTEM    = UTC
MEAN_ELEMENT_THEORY = SGP/SGP4

EPOCH          = 2026-03-01T20:00:01.999008
MEAN_MOTION    = 15.84278792
ECCENTRICITY   = .0001004
INCLINATION    = 53.1494
RA_OF_ASC_NODE = 250.4959
ARG_OF_PERICENTER = 64.8087
MEAN_ANOMALY   = 72.1876

EPHEMERIS_TYPE = 0
CLASSIFICATION_TYPE = U
NORAD_CAT_ID   = 67878
ELEMENT_SET_NO = 999
REV_AT_EPOCH   = 260
BSTAR          = -.73165E-2
MEAN_MOTION_DOT = -.1497948E-1
MEAN_MOTION_DDOT = 0

CCSDS_OMM_VERS = 2.0
CREATION_DATE  = 
ORIGINATOR     = 

OBJECT_NAME    = STARLINK-36818
OBJECT_ID      = 2026-035A
CENTER_NAME    = EARTH
REF_FRAME      = TEME
TIME_SYSTEM    = UTC
MEAN_ELEMENT_THEORY = SGP/SGP4

EPOCH          = 2026-03-01T20:00:01.999008
MEAN_MOTION    = 16.03266720
ECCENTRICITY   = .0001005
INCLINATION    = 97.2805
RA_OF_ASC_NODE = 352.5257
ARG_OF_PERICENTER = 102.7618
MEAN_ANOMALY   = 334.1083

EPHEMERIS_TYPE = 0
CLASSIFICATION_TYPE = U
NORAD_CAT_ID   = 67879
ELEMENT_SET_NO = 999
REV_AT_EPOCH   = 249
BSTAR          = -.13921E-2
MEAN_MOTION_DOT = -.850237E-2
MEAN_MOTION_DDOT = .25193E-3

CCSDS_OMM_VERS = 2.0
CREATION_DATE  = 
ORIGINATOR     = 

OBJECT_NAME    = STARLINK-36821
OBJECT_ID      = 2026-035B
CENTER_NAME    = EARTH
REF_FRAME      = TEME
TIME_SYSTEM    = UTC
MEAN_ELEMENT_THEORY = SGP/SGP4

EPOCH          = 2026-03-01T20:00:01.999008
MEAN_MOTION    = 16.03453412
ECCENTRICITY   = .0000914
INCLINATION    = 97.2802
RA_OF_ASC_NODE = 352.5278
ARG_OF_PERICENTER = 98.4858
MEAN_ANOMALY   = 343.0328

EPHEMERIS_TYPE = 0
CLASSIFICATION_TYPE = U
NORAD_CAT_ID   = 67880
ELEMENT_SET_NO = 999
REV_AT_EPOCH   = 249
BSTAR          = -.13806E-2
MEAN_MOTION_DOT = -.852523E-2
MEAN_MOTION_DDOT = .25375E-3

CCSDS_OMM_VERS = 2.0
CREATION_DATE  = 
ORIGINATOR     = 

OBJECT_NAME    = STARLINK-36808
OBJECT_ID      = 2026-035C
CENTER_NAME    = EARTH
REF_FRAME      = TEME
TIME_SYSTEM    = UTC
MEAN_ELEMENT_THEORY = SGP/SGP4

EPOCH          = 2026-03-01T20:00:01.999008
MEAN_MOTION    = 16.03328231
ECCENTRICITY   = .0001031
INCLINATION    = 97.2802
RA_OF_ASC_NODE = 352.5265
ARG_OF_PERICENTER = 87.4936
MEAN_ANOMALY   = 351.1035

EPHEMERIS_TYPE = 0
CLASSIFICATION_TYPE = U
NORAD_CAT_ID   = 67881
ELEMENT_SET_NO = 999
REV_AT_EPOCH   = 249
BSTAR          = -.13603E-2
MEAN_MOTION_DOT = -.833901E-2
MEAN_MOTION_DDOT = .2432E-3

CCSDS_OMM_VERS = 2.0
CREATION_DATE  = 
ORIGINATOR     = 

OBJECT_NAME    = STARLINK-36817
OBJECT_ID      = 2026-035D
CENTER_NAME    = EARTH
REF_FRAME      = TEME
TIME_SYSTEM    = UTC
MEAN_ELEMENT_THEORY = SGP/SGP4

EPOCH          = 2026-03-01T20:00:01.999008
MEAN_MOTION    = 16.03682345
ECCENTRICITY   = .0000961
INCLINATION    = 97.2795
RA_OF_ASC_NODE = 352.5301
ARG_OF_PERICENTER = 95.8977
MEAN_ANOMALY   = 351.3066

EPHEMERIS_TYPE = 0
CLASSIFICATION_TYPE = U
NORAD_CAT_ID   = 67882
ELEMENT_SET_NO = 999
REV_AT_EPOCH   = 249
BSTAR          = -.13609E-2
MEAN_MOTION_DOT = -.851816E-2
MEAN_MOTION_DDOT = .25406E-3

CCSDS_OMM_VERS = 2.0
CREATION_DATE  = 
ORIGINATOR     = 

OBJECT_NAME    = STARLINK-36856
OBJECT_ID      = 2026-035E
CENTER_NAME    = EARTH
REF_FRAME      = TEME
TIME_SYSTEM    = UTC
MEAN_ELEMENT_THEORY = SGP/SGP4

EPOCH          = 2026-03-01T20:00:01.999008
MEAN_MOTION    = 16.03565693
ECCENTRICITY   = .0001074
INCLINATION    = 97.2800
RA_OF_ASC_NODE = 352.5290
ARG_OF_PERICENTER = 79.4956
MEAN_ANOMALY   = 5.0743

EPHEMERIS_TYPE = 0
CLASSIFICATION_TYPE = U
NORAD_CAT_ID   = 67883
ELEMENT_SET_NO = 999
REV_AT_EPOCH   = 249
BSTAR          = -.13467E-2
MEAN_MOTION_DOT = -.837231E-2
MEAN_MOTION_DDOT = .2457E-3

